LANDSAT 9               
1 49260U 21088A   23353.15857196  .00000594  00000+0  14188-3 0  9990
2 49260  98.2112  60.6453 0001184  93.0392 267.0942 14.57107974118331
